#dP2018  1 12  0  0  0.00000000      96 __u+U ITR00 FIT  IAC
## 1983 432000.00000000   900.00000000 58130 0.0000000000000
+   87   C01C02C03C05C06C07C08C09C10C11C12C13C14E01E02E03E04
+        E05E07E08E09E11E12E14E18E19E24E26E30G01G02G03G04G05
+        G06G07G08G09G10G11G12G13G14G15G16G17G18G19G20G21G22
+        G23G24G25G26G27G28G29G30G31G32J01J02R01R02R03R04R05
+        R06R07R08R09R10R11R13R14R15R16R17R18R19R20R21R22R23
+        R24R26  0  0  0  0  0  0  0  0  0  0  0  0  0  0  0
++        12 12  0 12  9  9  9  8  9  8  8  9  8  7  6  6  6
++         6  7  6  6  6  7  7  6  7  6  7  6  3  3  4  4  3
++         4  3  3  3  3  4  3  3  3  4  3  3  3  3  3  3  4
++         3  4  4  3  3  4  3  3  3  3 11 11  5  5  5  5  6
++         6  5  5  5  5  5  5  5  5  5  5  5  5  5  5  5  5
++         6  9  0  0  0  0  0  0  0  0  0  0  0  0  0  0  0
%c M  cc GPS ccc cccc cccc cccc cccc ccccc ccccc ccccc ccccc
%c cc cc ccc ccc cccc cccc cccc cccc ccccc ccccc ccccc ccccc
%f  0.0000000  0.000000000  0.00000000000  0.000000000000000
%f  0.0000000  0.000000000  0.00000000000  0.000000000000000
%i    0    0    0    0      0      0      0      0         0
%i    0    0    0    0      0      0      0      0         0
/* INFORMATION & ANALYSIS CENTER (IAC) OF MCC   (RAPID DATA)
/* S/V CLOCKS ARE ALIGNED TO GPS & GLONASS TIME RESPECTIVELY
/* USING THE BROADCAST EPHEMERIS                            
/* PCV:IGS14_1977 OL/AL:FES2004  NONE     YN ORB:CoN CLK:CoN
*  2018 01 12  9 15  0.00000000
PC01 -32320.494156  27095.133441    316.499286    229.534063
PC02   4378.608700  41914.853897  -1095.240259   -148.529655
PC03      0.000000      0.000000      0.000000 999999.999999
PC05  21865.776012  35995.507672  -1403.748842   -118.430796
PC06 -20560.346041  36590.408992   1636.001500   -672.666405
PC07  -8266.983626  29189.593151  29565.590841   -271.702036
PC08 -20651.329679  19347.041271 -31267.099504    109.290228
PC09 -10950.701006  37370.247468  15915.817375   -511.006007
PC10   4884.035060  36756.630298  20492.862140     61.756755
PC11 -26260.606464   5748.556002   7705.484159   -349.628619
PC12 -15880.805015  -8554.105265  21380.575133    370.711991
PC13  -4415.442678  23565.760618 -34688.138374   -141.450029
PC14 -16175.051063   1538.265742 -22636.981878    136.439076
PE01  -4683.756660  18851.013101  22338.129013   -251.277712
PE02   4651.969367 -18876.637499 -22321.011235      1.495246
PE03  13770.749688 -26165.627253   1257.413272     13.468812
PE04    633.533185  24828.404867  16097.963637     45.595474
PE05  20154.399429 -12181.611034  17928.856923    343.253200
PE07 -14729.925198  -8909.593799 -24078.434682    103.346946
PE08   -776.892964 -24795.951800 -16143.246485   6662.884225
PE09  14644.861459   8787.047904  24176.712756   6905.755078
PE11  25472.804894   6992.181792 -13368.041151   1853.655213
PE12   7361.769271  15655.095211 -24009.904252   3263.855368
PE14  -6890.634317  22843.763219 -18014.600510   6649.190791
PE18  18802.814529 -18836.679905   6357.540955   6509.949396
PE19 -14729.917940  25480.201283  -3126.823760     18.269885
PE24  20818.502172  17884.307691 -11064.676011   6920.799000
PE26 -28666.592184   5527.350332  -4905.894701   6395.107590
PE30 -11456.669396 -26132.268781  -7906.436311   6166.765057
PG01  21622.919213  14010.538134  -7170.770936    -23.156059
PG02  -1044.087056 -16507.277029  21372.759122    230.385407
PG03  13019.752793  17881.796244  14715.781557    -11.296152
PG04  -9138.758187  18125.012602  16740.302875     31.324405
PG05  -2027.464082 -26161.676102   3207.746329    -17.177557
PG06  11940.641086 -10861.772727  21123.397633    414.702180
PG07  25179.488239   4800.799112  -7579.261262    252.683355
PG08   5639.732787  14453.347042 -21485.614635    -87.392791
PG09  21756.525081  -4276.496182  14592.249542    492.320610
PG10 -11852.921358  13342.070465 -19595.856780    144.788008
PG11  19433.835032  11011.092852 -14835.921543   -733.739706
PG12 -10351.168234 -20742.662997  12973.410427    355.878720
PG13   3670.058176 -17910.655147 -19389.218166    -95.290702
PG14 -16880.663166  18616.432422   8610.219067    -92.248136
PG15  -8610.199996 -13702.342473 -21233.778999   -357.367186
PG16     81.788989  26197.790342   2496.696654     34.179011
PG17  21542.586158 -15400.286005      8.312240   -131.451313
PG18 -15732.030017   1014.955359 -20788.064155    633.572324
PG19  18740.567371 -17580.264610   6858.150436   -464.200212
PG20 -14298.846598 -18854.679457 -12255.667299    498.088425
PG21 -24799.999744  -1989.267643  -8561.763659   -442.640954
PG22  11126.100459  22648.260436   8492.412078   -254.200786
PG23  15786.990340   6516.865785  20694.419222   -219.082898
PG24 -19973.528727 -14719.184288  -9964.764365    -44.661801
PG25 -15016.424739  -8172.324137  20229.297619   -521.037378
PG26  -5535.510508  22474.817428  12917.271803   -290.393785
PG27  -7022.276677  19696.184764 -16290.687448    362.092405
PG28  13018.301146  -9374.898161 -20544.741349    679.139617
PG29 -19817.134478   -511.784106  17660.830664    512.273712
PG30  21549.264581  -2323.682606 -15442.309730    113.215614
PG31 -11587.061583  11062.853844  21299.514014    149.186905
PG32 -20617.566045  16683.804346    128.247840   -532.708592
PJ01 -20200.249908  28236.939004 -19306.878588   -159.622661
PJ02 -24924.677184  21177.820310  31247.646391      0.019116
PR01  -2171.615407 -20017.600214 -15656.197992     20.567666
PR02 -10830.604417  -1832.642716 -22990.372524    289.777212
PR03 -12454.551450  16084.162999 -15332.989128    121.147513
PR04  -6494.741706  24603.731455   1667.928539    245.687809
PR05   3097.246682  18920.172803  16815.235770   -228.530993
PR06  11304.719266    708.462205  22839.022765    125.004624
PR07  12446.945185 -16413.758209  15092.910836    -27.263335
PR08   6889.491265 -24541.385019   -936.585484    -26.994770
PR09  18928.278460  11853.933151 -12365.684942     47.849794
PR10  11198.346993  -3196.382920 -22721.709597     15.757991
PR11  -2943.731523 -16608.624548 -19104.760964    -19.195194
PR13 -18907.690214 -10910.936165  13179.431148     -6.447591
PR14 -11532.977277   3172.222140  22542.449190     23.791569
PR15    214.681743  14431.977963  21011.676778     -5.118603
PR16  15393.732512  19596.297206   5138.953288     83.096655
PR17 -23333.787622   8281.617639  -6195.879952    100.391230
PR18 -10826.071843  11800.991874 -19813.734311    180.787855
PR19   7917.492755   8797.899907 -22589.137043    -40.943447
PR20  22938.043571    382.208530 -11190.786432   -323.088229
PR21  23197.614158  -8385.482196   6453.379765     18.525732
PR22   9231.581913 -11767.965336  20710.122904     -9.590633
PR23 -11378.030696  -7481.309057  21567.474764    129.807503
PR24 -23162.076916    301.835059  10649.624412   -160.977618
PR26  22891.239151     -7.641990 -11212.712833     -7.211350
EOF
